<?xml version="1.0" encoding="UTF-8"?><gpx version="1.1" creator="PathSolverApp"><wpt lat="50.02111739012603" lon="14.472373723983766"></wpt>
<wpt lat="50.02113738079879" lon="14.472438097000124"></wpt>
<wpt lat="50.0211718474383" lon="14.4725239276886"></wpt>
<wpt lat="50.0212097607132" lon="14.472615122795105"></wpt>
<wpt lat="50.02123733398523" lon="14.472700953483583"></wpt>
<wpt lat="50.02126835389739" lon="14.47278141975403"></wpt>
<wpt lat="50.02130282044291" lon="14.472883343696596"></wpt>
<wpt lat="50.02134142293406" lon="14.472990632057192"></wpt>
<wpt lat="50.021365549481835" lon="14.47305500507355"></wpt>
<wpt lat="50.0213993266389" lon="14.473135471343996"></wpt>
<wpt lat="50.02143723973426" lon="14.473242759704592"></wpt>
<wpt lat="50.02146825951733" lon="14.473328590393068"></wpt>
<wpt lat="50.02146825951733" lon="14.473328590393068"></wpt>
<wpt lat="50.02150686187553" lon="14.473419785499575"></wpt></gpx>