<?xml version="1.0" encoding="UTF-8"?>
<gpx xmlns="http://www.topografix.com/GPX/1/1" version="1.1" creator="MapData Planner">
  <wpt lat="50.103840002609786" lon="14.429440999968929"></wpt>
  <wpt lat="50.103853760181174" lon="14.429436477941623"></wpt>
  <wpt lat="50.10384836217493" lon="14.42939677879998"></wpt>
  <wpt lat="50.10384296415513" lon="14.42935707966737"></wpt>
  <wpt lat="50.10383756612179" lon="14.42931738054379"></wpt>
  <wpt lat="50.10383216807489" lon="14.429277681429244"></wpt>
  <wpt lat="50.10382677001444" lon="14.429237982323732"></wpt>
  <wpt lat="50.10382137194045" lon="14.429198283227251"></wpt>
  <wpt lat="50.1038159738529" lon="14.429158584139804"></wpt>
  <wpt lat="50.103810575751815" lon="14.42911888506139"></wpt>
  <wpt lat="50.10380517763719" lon="14.42907918599201"></wpt>
  <wpt lat="50.10379977950902" lon="14.429039486931659"></wpt>
  <wpt lat="50.103794381367265" lon="14.428999787880318"></wpt>
  <wpt lat="50.103788983212" lon="14.428960088838036"></wpt>
  <wpt lat="50.103783585043175" lon="14.428920389804784"></wpt>
  <wpt lat="50.103778186860794" lon="14.428880690780542"></wpt>
  <wpt lat="50.10377278866486" lon="14.428840991765355"></wpt>
  <wpt lat="50.103767390455396" lon="14.428801292759179"></wpt>
  <wpt lat="50.10376199223237" lon="14.42876159376206"></wpt>
  <wpt lat="50.103756593995804" lon="14.428721894773947"></wpt>
  <wpt lat="50.103751195745694" lon="14.428682195794867"></wpt>
  <wpt lat="50.10374579748202" lon="14.428642496824846"></wpt>
  <wpt lat="50.10374039920482" lon="14.428602797863833"></wpt>
  <wpt lat="50.10373500091406" lon="14.428563098911852"></wpt>
  <wpt lat="50.103729602609754" lon="14.428523399968903"></wpt>
  <wpt lat="50.10375365261433" lon="14.428537766599817"></wpt>
  <wpt lat="50.10377770261708" lon="14.42855213324503"></wpt>
  <wpt lat="50.103801752618004" lon="14.428566499904544"></wpt>
  <wpt lat="50.103825802617095" lon="14.428580866578358"></wpt>
  <wpt lat="50.10384985261436" lon="14.42859523326647"></wpt>
  <wpt lat="50.103873902609806" lon="14.428609599968883"></wpt>
  <wpt lat="50.10389750261243" lon="14.428623649948301"></wpt>
  <wpt lat="50.103921102613306" lon="14.428637699941461"></wpt>
  <wpt lat="50.103944702612445" lon="14.428651749948308"></wpt>
  <wpt lat="50.103968302609815" lon="14.428665799968897"></wpt>
  <wpt lat="50.10399376927666" lon="14.428668833299136"></wpt>
  <wpt lat="50.104019235943355" lon="14.428671866632481"></wpt>
  <wpt lat="50.104044702609855" lon="14.428674899968904"></wpt>
  <wpt lat="50.10406755261043" lon="14.428669274977066"></wpt>
  <wpt lat="50.10409040261063" lon="14.428663649979782"></wpt>
  <wpt lat="50.104113252610446" lon="14.428658024977054"></wpt>
  <wpt lat="50.104136102609885" lon="14.428652399968879"></wpt>
  <wpt lat="50.10415483594699" lon="14.428631766651689"></wpt>
  <wpt lat="50.104173569280334" lon="14.428611133318366"></wpt>
  <wpt lat="50.10419230260988" lon="14.428590499968886"></wpt>
  <wpt lat="50.10420736262376" lon="14.428562340004177"></wpt>
  <wpt lat="50.104222422630684" lon="14.42853418002181"></wpt>
  <wpt lat="50.104237482630694" lon="14.428506020021809"></wpt>
  <wpt lat="50.10425254262376" lon="14.428477860004175"></wpt>
  <wpt lat="50.10426760260991" lon="14.428449699968885"></wpt>
  <wpt lat="50.104286702625735" lon="14.428425257170135"></wpt>
  <wpt lat="50.1043058026363" lon="14.428400814351894"></wpt>
  <wpt lat="50.10432490264159" lon="14.428376371514215"></wpt>
  <wpt lat="50.10434400264159" lon="14.42835192865707"></wpt>
  <wpt lat="50.10436310263631" lon="14.428327485780486"></wpt>
  <wpt lat="50.104382202625764" lon="14.428303042884412"></wpt>
  <wpt lat="50.10440130260993" lon="14.428278599968897"></wpt>
  <wpt lat="50.104424982617" lon="14.428258840008002"></wpt>
  <wpt lat="50.104448662620534" lon="14.428239080027542"></wpt>
  <wpt lat="50.10447234262055" lon="14.428219320027539"></wpt>
  <wpt lat="50.10449602261703" lon="14.428199560007968"></wpt>
  <wpt lat="50.10451970260997" lon="14.428179799968857"></wpt>
  <wpt lat="50.104539359763706" lon="14.428159642875611"></wpt>
  <wpt lat="50.10455901691382" lon="14.428139485765824"></wpt>
  <wpt lat="50.104578674060306" lon="14.428119328639525"></wpt>
  <wpt lat="50.104598331203164" lon="14.428099171496662"></wpt>
  <wpt lat="50.104617988342405" lon="14.428079014337259"></wpt>
  <wpt lat="50.104637645478014" lon="14.428058857161343"></wpt>
  <wpt lat="50.10465730261001" lon="14.428038699968862"></wpt>
  <wpt lat="50.104669535987554" lon="14.42800302226351"></wpt>
  <wpt lat="50.10468176935405" lon="14.42796734454007"></wpt>
  <wpt lat="50.10469400270948" lon="14.42793166679851"></wpt>
  <wpt lat="50.10470623605387" lon="14.427895989038836"></wpt>
  <wpt lat="50.10471846938721" lon="14.427860311261044"></wpt>
  <wpt lat="50.10473070270949" lon="14.427824633465162"></wpt>
  <wpt lat="50.104742936020735" lon="14.427788955651163"></wpt>
  <wpt lat="50.10475516932092" lon="14.427753277819074"></wpt>
  <wpt lat="50.104767402610044" lon="14.427717599968842"></wpt>
  <wpt lat="50.104778527696666" lon="14.427681106345087"></wpt>
  <wpt lat="50.104789652771736" lon="14.427644612704487"></wpt>
  <wpt lat="50.10480077783529" lon="14.427608119047068"></wpt>
  <wpt lat="50.10481190288726" lon="14.427571625372805"></wpt>
  <wpt lat="50.10482302792769" lon="14.427535131681724"></wpt>
  <wpt lat="50.104834152956556" lon="14.427498637973798"></wpt>
  <wpt lat="50.10484527797387" lon="14.427462144249027"></wpt>
  <wpt lat="50.104856402979664" lon="14.42742565050744"></wpt>
  <wpt lat="50.1048675279739" lon="14.427389156749031"></wpt>
  <wpt lat="50.104878652956565" lon="14.42735266297378"></wpt>
  <wpt lat="50.1048897779277" lon="14.42731616918171"></wpt>
  <wpt lat="50.104900902887266" lon="14.427279675372795"></wpt>
  <wpt lat="50.1049120278353" lon="14.42724318154706"></wpt>
  <wpt lat="50.10492315277178" lon="14.427206687704484"></wpt>
  <wpt lat="50.104934277696714" lon="14.427170193845061"></wpt>
  <wpt lat="50.104945402610085" lon="14.42713369996882"></wpt>
  <wpt lat="50.104953569303454" lon="14.427098566665173"></wpt>
  <wpt lat="50.104961735986166" lon="14.427063433349643"></wpt>
  <wpt lat="50.104969902658176" lon="14.42702830002223"></wpt>
  <wpt lat="50.10497806931951" lon="14.426993166682959"></wpt>
  <wpt lat="50.10498623597016" lon="14.426958033331832"></wpt>
  <wpt lat="50.10499440261012" lon="14.426922899968822"></wpt>
  <wpt lat="50.1050013299524" lon="14.426882781844313"></wpt>
  <wpt lat="50.105008257280765" lon="14.426842663708355"></wpt>
  <wpt lat="50.10501518459523" lon="14.42680254556092"></wpt>
  <wpt lat="50.10502211189577" lon="14.426762427402036"></wpt>
  <wpt lat="50.105029039182405" lon="14.426722309231677"></wpt>
  <wpt lat="50.10503596645514" lon="14.426682191049867"></wpt>
  <wpt lat="50.10504289371395" lon="14.426642072856582"></wpt>
  <wpt lat="50.10504982095887" lon="14.426601954651822"></wpt>
  <wpt lat="50.10505674818987" lon="14.42656183643561"></wpt>
  <wpt lat="50.10506367540695" lon="14.426521718207924"></wpt>
  <wpt lat="50.105070602610134" lon="14.426481599968788"></wpt>
  <wpt lat="50.10507591267329" lon="14.426441280008392"></wpt>
  <wpt lat="50.10508122272242" lon="14.426400960039192"></wpt>
  <wpt lat="50.105086532757525" lon="14.426360640061212"></wpt>
  <wpt lat="50.105091842778585" lon="14.426320320074405"></wpt>
  <wpt lat="50.105097152785596" lon="14.426280000078792"></wpt>
  <wpt lat="50.10510246277858" lon="14.426239680074403"></wpt>
  <wpt lat="50.10510777275753" lon="14.426199360061183"></wpt>
  <wpt lat="50.10511308272244" lon="14.426159040039185"></wpt>
  <wpt lat="50.105118392673305" lon="14.426118720008358"></wpt>
  <wpt lat="50.105123702610136" lon="14.426078399968752"></wpt>
  <wpt lat="50.10512632266482" lon="14.42604085998673"></wpt>
  <wpt lat="50.10512894270736" lon="14.42600332000071"></wpt>
  <wpt lat="50.10513156273775" lon="14.425965780010698"></wpt>
  <wpt lat="50.105134182755975" lon="14.42592824001669"></wpt>
  <wpt lat="50.10513680276205" lon="14.425890700018662"></wpt>
  <wpt lat="50.10513942275598" lon="14.425853160016665"></wpt>
  <wpt lat="50.105142042737754" lon="14.425815620010672"></wpt>
  <wpt lat="50.10514466270737" lon="14.425778080000686"></wpt>
  <wpt lat="50.10514728266484" lon="14.425740539986705"></wpt>
  <wpt lat="50.10514990261015" lon="14.425702999968728"></wpt>
  <wpt lat="50.10516850261017" lon="14.425703999968732"></wpt>
  <wpt lat="50.10519536414939" lon="14.425704492273866"></wpt>
  <wpt lat="50.105222225688486" lon="14.425704984579458"></wpt>
  <wpt lat="50.10524908722745" lon="14.42570547688543"></wpt>
  <wpt lat="50.105275948766284" lon="14.425705969191862"></wpt>
  <wpt lat="50.105302810305005" lon="14.425706461498699"></wpt>
  <wpt lat="50.10532967184359" lon="14.42570695380597"></wpt>
  <wpt lat="50.10535653338206" lon="14.425707446113673"></wpt>
  <wpt lat="50.10538339492041" lon="14.425707938421784"></wpt>
  <wpt lat="50.10541025645862" lon="14.425708430730326"></wpt>
  <wpt lat="50.105437117996715" lon="14.425708923039302"></wpt>
  <wpt lat="50.1054639795347" lon="14.425709415348685"></wpt>
  <wpt lat="50.10549084107254" lon="14.425709907658499"></wpt>
  <wpt lat="50.105517702610264" lon="14.425710399968747"></wpt>
  <wpt lat="50.10552222266998" lon="14.425671190001477"></wpt>
  <wpt lat="50.10552674271643" lon="14.42563198002693"></wpt>
  <wpt lat="50.105531262749594" lon="14.425592770045105"></wpt>
  <wpt lat="50.105535782769515" lon="14.425553560056002"></wpt>
  <wpt lat="50.10554030277615" lon="14.425514350059624"></wpt>
  <wpt lat="50.1055448227695" lon="14.425475140055994"></wpt>
  <wpt lat="50.105549342749605" lon="14.425435930045087"></wpt>
  <wpt lat="50.10555386271643" lon="14.425396720026901"></wpt>
  <wpt lat="50.10555838266998" lon="14.42535751000144"></wpt>
  <wpt lat="50.105562902610274" lon="14.425318299968701"></wpt>
  <wpt lat="50.10556855274766" lon="14.425277375059068"></wpt>
  <wpt lat="50.10557420287062" lon="14.425236450139945"></wpt>
  <wpt lat="50.105579852979105" lon="14.425195525211281"></wpt>
  <wpt lat="50.105585503073115" lon="14.425154600273125"></wpt>
  <wpt lat="50.105591153152666" lon="14.425113675325452"></wpt>
  <wpt lat="50.10559680321775" lon="14.425072750368239"></wpt>
  <wpt lat="50.10560245326839" lon="14.425031825401561"></wpt>
  <wpt lat="50.10560810330454" lon="14.424990900425314"></wpt>
  <wpt lat="50.10561375332623" lon="14.424949975439603"></wpt>
  <wpt lat="50.105619403333485" lon="14.42490905044435"></wpt>
  <wpt lat="50.105625053326236" lon="14.42486812543958"></wpt>
  <wpt lat="50.10563070330455" lon="14.424827200425321"></wpt>
  <wpt lat="50.10563635326838" lon="14.424786275401544"></wpt>
  <wpt lat="50.10564200321777" lon="14.424745350368227"></wpt>
  <wpt lat="50.105647653152694" lon="14.424704425325418"></wpt>
  <wpt lat="50.105653303073126" lon="14.424663500273093"></wpt>
  <wpt lat="50.10565895297912" lon="14.424622575211252"></wpt>
  <wpt lat="50.105664602870654" lon="14.424581650139896"></wpt>
  <wpt lat="50.10567025274771" lon="14.424540725059048"></wpt>
  <wpt lat="50.1056759026103" lon="14.424499799968657"></wpt>
  <wpt lat="50.10568097273596" lon="14.424460660046158"></wpt>
  <wpt lat="50.10568604284839" lon="14.42442152011549"></wpt>
  <wpt lat="50.1056911129476" lon="14.42438238017668"></wpt>
  <wpt lat="50.10569618303358" lon="14.424343240229678"></wpt>
  <wpt lat="50.10570125310633" lon="14.424304100274558"></wpt>
  <wpt lat="50.10570632316585" lon="14.424264960311245"></wpt>
  <wpt lat="50.10571139321214" lon="14.424225820339815"></wpt>
  <wpt lat="50.105716463245216" lon="14.424186680360194"></wpt>
  <wpt lat="50.105721533265054" lon="14.424147540372429"></wpt>
  <wpt lat="50.10572660327167" lon="14.424108400376495"></wpt>
  <wpt lat="50.10573167326507" lon="14.424069260372422"></wpt>
  <wpt lat="50.105736743245224" lon="14.424030120360179"></wpt>
  <wpt lat="50.10574181321215" lon="14.423990980339795"></wpt>
  <wpt lat="50.10574688316585" lon="14.423951840311242"></wpt>
  <wpt lat="50.10575195310634" lon="14.423912700274522"></wpt>
  <wpt lat="50.1057570230336" lon="14.42387356022966"></wpt>
  <wpt lat="50.10576209294762" lon="14.42383442017663"></wpt>
  <wpt lat="50.105767162848416" lon="14.423795280115458"></wpt>
  <wpt lat="50.10577223273598" lon="14.423756140046118"></wpt>
  <wpt lat="50.105777302610335" lon="14.423716999968637"></wpt>
  <wpt lat="50.10578208126826" lon="14.423677735732987"></wpt>
  <wpt lat="50.10578685991289" lon="14.423638471489651"></wpt>
  <wpt lat="50.10579163854421" lon="14.423599207238608"></wpt>
  <wpt lat="50.105796417162225" lon="14.42355994297988"></wpt>
  <wpt lat="50.10580119576693" lon="14.423520678713416"></wpt>
  <wpt lat="50.105805974358326" lon="14.42348141443927"></wpt>
  <wpt lat="50.10581075293641" lon="14.423442150157387"></wpt>
  <wpt lat="50.10581553150119" lon="14.42340288586782"></wpt>
  <wpt lat="50.10582031005266" lon="14.42336362157057"></wpt>
  <wpt lat="50.10582508859081" lon="14.423324357265583"></wpt>
  <wpt lat="50.10582986711565" lon="14.423285092952886"></wpt>
  <wpt lat="50.105834645627205" lon="14.423245828632506"></wpt>
  <wpt lat="50.10583942412542" lon="14.423206564304392"></wpt>
  <wpt lat="50.105844202610335" lon="14.423167299968592"></wpt>
  <wpt lat="50.10585825261261" lon="14.42314454997524"></wpt>
  <wpt lat="50.10587230261036" lon="14.423121799968579"></wpt>
  <wpt lat="50.105896962614246" lon="14.423107399998326"></wpt>
  <wpt lat="50.105921622616194" lon="14.423093000013216"></wpt>
  <wpt lat="50.1059462826162" lon="14.42307860001322"></wpt>
  <wpt lat="50.10597094261427" lon="14.42306419999834"></wpt>
  <wpt lat="50.1059956026104" lon="14.423049799968574"></wpt>
  <wpt lat="50.10600498263135" lon="14.423084719941146"></wpt>
  <wpt lat="50.106014362641815" lon="14.423119639927435"></wpt>
  <wpt lat="50.10602374264181" lon="14.423154559927438"></wpt>
  <wpt lat="50.10603312263135" lon="14.423189479941154"></wpt>
  <wpt lat="50.1060425026104" lon="14.423224399968587"></wpt>
  <wpt lat="50.10606188261601" lon="14.42320673999719"></wpt>
  <wpt lat="50.10608126261883" lon="14.423189080011467"></wpt>
  <wpt lat="50.10610064261881" lon="14.42317142001147"></wpt>
  <wpt lat="50.10612002261603" lon="14.423153759997172"></wpt>
  <wpt lat="50.10613940261044" lon="14.423136099968575"></wpt>
  <wpt lat="50.10614927765123" lon="14.423099425021093"></wpt>
  <wpt lat="50.106159152680355" lon="14.423062750058596"></wpt>
  <wpt lat="50.106169027697845" lon="14.42302607508109"></wpt>
  <wpt lat="50.10617890270368" lon="14.422989400088595"></wpt>
  <wpt lat="50.10618877769785" lon="14.422952725081089"></wpt>
  <wpt lat="50.10619865268038" lon="14.422916050058594"></wpt>
  <wpt lat="50.10620852765124" lon="14.42287937502109"></wpt>
  <wpt lat="50.10621840261046" lon="14.422842699968596"></wpt>
  <wpt lat="50.106231531213716" lon="14.422807771454274"></wpt>
  <wpt lat="50.10624465980634" lon="14.422772842920919"></wpt>
  <wpt lat="50.106257788388376" lon="14.422737914368508"></wpt>
  <wpt lat="50.106270916959794" lon="14.422702985797088"></wpt>
  <wpt lat="50.106284045520624" lon="14.42266805720661"></wpt>
  <wpt lat="50.10629717407085" lon="14.4226331285971"></wpt>
  <wpt lat="50.10631030261047" lon="14.422598199968558"></wpt>
  <wpt lat="50.106324145493986" lon="14.42256642859482"></wpt>
  <wpt lat="50.10633798836872" lon="14.422534657202785"></wpt>
  <wpt lat="50.106351831234655" lon="14.422502885792483"></wpt>
  <wpt lat="50.106365674091805" lon="14.42247111436391"></wpt>
  <wpt lat="50.106379516940166" lon="14.42243934291707"></wpt>
  <wpt lat="50.10639335977974" lon="14.422407571451934"></wpt>
  <wpt lat="50.106407202610505" lon="14.422375799968554"></wpt>
  <wpt lat="50.106424302631275" lon="14.422349812533321"></wpt>
  <wpt lat="50.106441402646105" lon="14.42232382507959"></wpt>
  <wpt lat="50.10645850265499" lon="14.422297837607363"></wpt>
  <wpt lat="50.10647560265797" lon="14.42227185011661"></wpt>
  <wpt lat="50.10649270265501" lon="14.42224586260736"></wpt>
  <wpt lat="50.10650980264611" lon="14.422219875079586"></wpt>
  <wpt lat="50.10652690263129" lon="14.422193887533314"></wpt>
  <wpt lat="50.10654400261054" lon="14.422167899968544"></wpt>
  <wpt lat="50.10656464262077" lon="14.422143880009909"></wpt>
  <wpt lat="50.1065852826259" lon="14.422119860030561"></wpt>
  <wpt lat="50.1066059226259" lon="14.422095840030579"></wpt>
  <wpt lat="50.1066265626208" lon="14.422071820009885"></wpt>
  <wpt lat="50.10664720261057" lon="14.42204779996853"></wpt>
  <wpt lat="50.10667026927928" lon="14.422032999982816"></wpt>
  <wpt lat="50.10669333594594" lon="14.42201819998283"></wpt>
  <wpt lat="50.10671640261061" lon="14.422003399968542"></wpt>
  <wpt lat="50.10674334546813" lon="14.422003385683247"></wpt>
  <wpt lat="50.106770288325535" lon="14.422003371397823"></wpt>
  <wpt lat="50.10679723118281" lon="14.422003357112247"></wpt>
  <wpt lat="50.10682417403994" lon="14.422003342826544"></wpt>
  <wpt lat="50.106851116896976" lon="14.422003328540688"></wpt>
  <wpt lat="50.10687805975388" lon="14.42200331425468"></wpt>
  <wpt lat="50.10690500261066" lon="14.422003299968544"></wpt>
  <wpt lat="50.10692836511339" lon="14.422012424937764"></wpt>
  <wpt lat="50.106951727615346" lon="14.422021549915813"></wpt>
  <wpt lat="50.10697509011653" lon="14.422030674902615"></wpt>
  <wpt lat="50.10699845261691" lon="14.42203979989822"></wpt>
  <wpt lat="50.10702181511653" lon="14.422048924902604"></wpt>
  <wpt lat="50.10704517761536" lon="14.422058049915792"></wpt>
  <wpt lat="50.10706854011343" lon="14.422067174937759"></wpt>
  <wpt lat="50.1070919026107" lon="14.422076299968527"></wpt>
  <wpt lat="50.10711755261098" lon="14.422073674972884"></wpt>
  <wpt lat="50.10714320261108" lon="14.422071049974365"></wpt>
  <wpt lat="50.10716885261099" lon="14.422068424972895"></wpt>
  <wpt lat="50.10719450261072" lon="14.422065799968525"></wpt>
  <wpt lat="50.10721490261074" lon="14.422063699968545"></wpt>
  <wpt lat="50.10723840261391" lon="14.422048599990827"></wpt>
  <wpt lat="50.10726190261497" lon="14.422033499998252"></wpt>
  <wpt lat="50.10728540261391" lon="14.422018399990815"></wpt>
  <wpt lat="50.10730890261075" lon="14.42200329996852"></wpt>
  <wpt lat="50.10732720261076" lon="14.421983099968546"></wpt>
  <wpt lat="50.1073451526125" lon="14.421963349975917"></wpt>
  <wpt lat="50.10736310261078" lon="14.421943599968504"></wpt>
  <wpt lat="50.10737680262144" lon="14.421908599988441"></wpt>
  <wpt lat="50.10739050262144" lon="14.42187359998843"></wpt>
  <wpt lat="50.10740420261078" lon="14.421838599968522"></wpt>
  <wpt lat="50.10741080262818" lon="14.421801974983481"></wpt>
  <wpt lat="50.107417402633985" lon="14.421765349988467"></wpt>
  <wpt lat="50.107424002628186" lon="14.421728724983478"></wpt>
  <wpt lat="50.10743060261079" lon="14.421692099968515"></wpt>
  <wpt lat="50.1074355026145" lon="14.42166284997146"></wpt>
  <wpt lat="50.107440402610806" lon="14.4216335999685"></wpt>
  <wpt lat="50.107459169279146" lon="14.421620133312402"></wpt>
  <wpt lat="50.10747793594581" lon="14.421606666645745"></wpt>
  <wpt lat="50.107496702610824" lon="14.421593199968504"></wpt>
  <wpt lat="50.107520952611054" lon="14.42159089997214"></wpt>
  <wpt lat="50.10754520261114" lon="14.421588599973335"></wpt>
  <wpt lat="50.10756945261108" lon="14.421586299972137"></wpt>
  <wpt lat="50.10759370261085" lon="14.421583999968497"></wpt>
  <wpt lat="50.10761405261101" lon="14.421582224970852"></wpt>
  <wpt lat="50.10763440261107" lon="14.421580449971652"></wpt>
  <wpt lat="50.10765475261102" lon="14.421578674970851"></wpt>
  <wpt lat="50.10767510261086" lon="14.421576899968471"></wpt>
  <wpt lat="50.10769773594466" lon="14.421573716642891"></wpt>
  <wpt lat="50.10772036927829" lon="14.421570533314181"></wpt>
  <wpt lat="50.10774300261173" lon="14.421567349982391"></wpt>
  <wpt lat="50.10776563594497" lon="14.421564166647524"></wpt>
  <wpt lat="50.10778826927803" lon="14.42156098330955"></wpt>
  <wpt lat="50.10781090261089" lon="14.421557799968475"></wpt>
  <wpt lat="50.10783115261134" lon="14.421548449972468"></wpt>
  <wpt lat="50.10785140261092" lon="14.421539099968495"></wpt>
  <wpt lat="50.10787005261146" lon="14.421528399972669"></wpt>
  <wpt lat="50.10788870261092" lon="14.421517699968472"></wpt>
  <wpt lat="50.107908535946365" lon="14.421502499981088"></wpt>
  <wpt lat="50.10792836927971" lon="14.421487299981084"></wpt>
  <wpt lat="50.10794820261095" lon="14.421472099968485"></wpt>
  <wpt lat="50.10797090261476" lon="14.421451499988036"></wpt>
  <wpt lat="50.107993602614776" lon="14.421430899988021"></wpt>
  <wpt lat="50.10801630261096" lon="14.421410299968489"></wpt>
  <wpt lat="50.108034002613564" lon="14.42139323331443"></wpt>
  <wpt lat="50.10805170261358" lon="14.421376166647747"></wpt>
  <wpt lat="50.108069402610965" lon="14.42135909996847"></wpt>
  <wpt lat="50.10808593594688" lon="14.42134209998021"></wpt>
  <wpt lat="50.10810246928022" lon="14.421325099980193"></wpt>
  <wpt lat="50.10811900261099" lon="14.421308099968472"></wpt>
  <wpt lat="50.10813520261293" lon="14.421287149975539"></wpt>
  <wpt lat="50.10815140261099" lon="14.421266199968482"></wpt>
  <wpt lat="50.10816870261345" lon="14.421242649976952"></wpt>
  <wpt lat="50.10818600261101" lon="14.421219099968477"></wpt>
  <wpt lat="50.10820215261394" lon="14.421193299977148"></wpt>
  <wpt lat="50.10821830261102" lon="14.421167499968465"></wpt>
  <wpt lat="50.108232352618614" lon="14.421143474989567"></wpt>
  <wpt lat="50.10824640262114" lon="14.42111944999657"></wpt>
  <wpt lat="50.10826045261861" lon="14.421095424989556"></wpt>
  <wpt lat="50.10827450261103" lon="14.42107139996847"></wpt>
  <wpt lat="50.10828896928514" lon="14.421042233319351"></wpt>
  <wpt lat="50.1083034359518" lon="14.4210130666527"></wpt>
  <wpt lat="50.10831790261105" lon="14.420983899968467"></wpt>
  <wpt lat="50.10832905262072" lon="14.420956674987373"></wpt>
  <wpt lat="50.10834020262395" lon="14.420929449993682"></wpt>
  <wpt lat="50.10835135262073" lon="14.420902224987373"></wpt>
  <wpt lat="50.10836250261106" lon="14.420874999968467"></wpt>
  <wpt lat="50.10837412762456" lon="14.420842824991754"></wpt>
  <wpt lat="50.10838575262905" lon="14.420810649999519"></wpt>
  <wpt lat="50.10839737762455" lon="14.420778474991737"></wpt>
  <wpt lat="50.10840900261106" lon="14.42074629996846"></wpt>
  <wpt lat="50.10841918043886" lon="14.420708311143608"></wpt>
  <wpt lat="50.10842935825416" lon="14.420670322302778"></wpt>
  <wpt lat="50.108439536056935" lon="14.420632333445917"></wpt>
  <wpt lat="50.10844971384722" lon="14.420594344573026"></wpt>
  <wpt lat="50.108459891624996" lon="14.420556355684157"></wpt>
  <wpt lat="50.108470069390286" lon="14.42051836677923"></wpt>
  <wpt lat="50.108480247143056" lon="14.420480377858327"></wpt>
  <wpt lat="50.10849042488332" lon="14.420442388921368"></wpt>
  <wpt lat="50.1085006026111" lon="14.420404399968428"></wpt>
  <wpt lat="50.10851193595687" lon="14.420366533319546"></wpt>
  <wpt lat="50.108523269290195" lon="14.42032866665288"></wpt>
  <wpt lat="50.1085346026111" lon="14.420290799968427"></wpt>
  <wpt lat="50.10854433595038" lon="14.420264666645656"></wpt>
  <wpt lat="50.10855406928371" lon="14.420238533312299"></wpt>
  <wpt lat="50.10856380261112" lon="14.420212399968406"></wpt>
  <wpt lat="50.1085759026389" lon="14.42017975716047"></wpt>
  <wpt lat="50.10858800265743" lon="14.420147114336121"></wpt>
  <wpt lat="50.108600102666685" lon="14.420114471495362"></wpt>
  <wpt lat="50.1086122026667" lon="14.420081828638214"></wpt>
  <wpt lat="50.10862430265743" lon="14.420049185764682"></wpt>
  <wpt lat="50.10863640263892" lon="14.420016542874738"></wpt>
  <wpt lat="50.10864850261115" lon="14.419983899968408"></wpt>
  <wpt lat="50.10865925261749" lon="14.419945649976913"></wpt>
  <wpt lat="50.10867000261115" lon="14.419907399968396"></wpt>
  <wpt lat="50.10867530261938" lon="14.419876533308475"></wpt>
  <wpt lat="50.10868060261939" lon="14.41984566664181"></wpt>
  <wpt lat="50.10868590261116" lon="14.419814799968377"></wpt>
  <wpt lat="50.10868736928816" lon="14.419780166637086"></wpt>
  <wpt lat="50.10868883595482" lon="14.41974553330376"></wpt>
  <wpt lat="50.108690302611144" lon="14.41971089996837"></wpt>
  <wpt lat="50.10868952762515" lon="14.419677949966662"></wpt>
  <wpt lat="50.10868875262984" lon="14.419644999966097"></wpt>
  <wpt lat="50.108687977625166" lon="14.419612049966679"></wpt>
  <wpt lat="50.108687202611144" lon="14.419579099968379"></wpt>
  <wpt lat="50.10870270261671" lon="14.419553933317951"></wpt>
  <wpt lat="50.108718202616714" lon="14.419528766651291"></wpt>
  <wpt lat="50.10873370261117" lon="14.419503599968372"></wpt>
  <wpt lat="50.108725982628414" lon="14.419471899947858"></wpt>
  <wpt lat="50.10871826263705" lon="14.419440199937599"></wpt>
  <wpt lat="50.10871054263705" lon="14.419408499937619"></wpt>
  <wpt lat="50.108702822628416" lon="14.419376799947868"></wpt>
  <wpt lat="50.108695102611144" lon="14.419345099968394"></wpt>
  <wpt lat="50.10870023597076" lon="14.41931021665347"></wpt>
  <wpt lat="50.108705369319864" lon="14.419275333331216"></wpt>
  <wpt lat="50.108710502658454" lon="14.419240450001558"></wpt>
  <wpt lat="50.10871563598652" lon="14.419205566664523"></wpt>
  <wpt lat="50.10872076930409" lon="14.419170683320132"></wpt>
  <wpt lat="50.108725902611155" lon="14.419135799968364"></wpt>
  <wpt lat="50.108731915160874" lon="14.419095250003508"></wpt>
  <wpt lat="50.10873792769638" lon="14.419054700028603"></wpt>
  <wpt lat="50.108743940217686" lon="14.419014150043648"></wpt>
  <wpt lat="50.10874995272479" lon="14.418973600048691"></wpt>
  <wpt lat="50.1087559652177" lon="14.41893305004366"></wpt>
  <wpt lat="50.108761977696396" lon="14.418892500028603"></wpt>
  <wpt lat="50.108767990160885" lon="14.418851950003496"></wpt>
  <wpt lat="50.10877400261117" lon="14.418811399968337"></wpt>
  <wpt lat="50.10879961170993" lon="14.418798618218839"></wpt>
  <wpt lat="50.10882522080712" lon="14.418785836455601"></wpt>
  <wpt lat="50.108850829902735" lon="14.418773054678647"></wpt>
  <wpt lat="50.108876438996795" lon="14.41876027288793"></wpt>
  <wpt lat="50.10890204808927" lon="14.41874749108347"></wpt>
  <wpt lat="50.10892765718019" lon="14.418734709265298"></wpt>
  <wpt lat="50.10895326626953" lon="14.418721927433385"></wpt>
  <wpt lat="50.10897887535732" lon="14.418709145587705"></wpt>
  <wpt lat="50.109004484443524" lon="14.418696363728339"></wpt>
  <wpt lat="50.10903009352818" lon="14.418683581855205"></wpt>
  <wpt lat="50.10905570261125" lon="14.418670799968332"></wpt>
  <wpt lat="50.1090797026145" lon="14.418660328571438"></wpt>
  <wpt lat="50.109103702616665" lon="14.418649857163986"></wpt>
  <wpt lat="50.10912770261776" lon="14.418639385745973"></wpt>
  <wpt lat="50.10915170261776" lon="14.4186289143174"></wpt>
  <wpt lat="50.10917570261669" lon="14.41861844287827"></wpt>
  <wpt lat="50.109199702614525" lon="14.41860797142858"></wpt>
  <wpt lat="50.1092237026113" lon="14.41859749996833"></wpt>
  <wpt lat="50.10924770261335" lon="14.418585574986347"></wpt>
  <wpt lat="50.10927170261405" lon="14.418573649992352"></wpt>
  <wpt lat="50.109295702613366" lon="14.418561724986349"></wpt>
  <wpt lat="50.10931970261132" lon="14.418549799968337"></wpt>
  <wpt lat="50.109335502611664" lon="14.41854134997114"></wpt>
  <wpt lat="50.109351302611344" lon="14.418532899968344"></wpt>
  <wpt lat="50.10937575261523" lon="14.418516099994124"></wpt>
  <wpt lat="50.10940020261654" lon="14.418499300002704"></wpt>
  <wpt lat="50.10942465261526" lon="14.418482499994107"></wpt>
  <wpt lat="50.10944910261138" lon="14.418465699968312"></wpt>
  <wpt lat="50.10946293595528" lon="14.41843083332168"></wpt>
  <wpt lat="50.109476769288605" lon="14.418395966655002"></wpt>
  <wpt lat="50.10949060261137" lon="14.418361099968296"></wpt>
  <wpt lat="50.10950180261578" lon="14.41833863331211"></wpt>
  <wpt lat="50.109513002615785" lon="14.418316166645443"></wpt>
  <wpt lat="50.10952420261138" lon="14.418293699968318"></wpt>
  <wpt lat="50.109540372652624" lon="14.418261300066366"></wpt>
  <wpt lat="50.1095565426847" lon="14.418228900142632"></wpt>
  <wpt lat="50.1095727127076" lon="14.418196500197093"></wpt>
  <wpt lat="50.109588882721354" lon="14.418164100229797"></wpt>
  <wpt lat="50.10960505272596" lon="14.418131700240671"></wpt>
  <wpt lat="50.10962122272138" lon="14.418099300229766"></wpt>
  <wpt lat="50.10963739270764" lon="14.41806690019708"></wpt>
  <wpt lat="50.10965356268475" lon="14.418034500142612"></wpt>
  <wpt lat="50.10966973265267" lon="14.418002100066339"></wpt>
  <wpt lat="50.10968590261144" lon="14.417969699968285"></wpt>
  <wpt lat="50.109674045494785" lon="14.41793779992088"></wpt>
  <wpt lat="50.109662188369384" lon="14.417905899889277"></wpt>
  <wpt lat="50.10965033123526" lon="14.417873999873475"></wpt>
  <wpt lat="50.10963847409239" lon="14.417842099873473"></wpt>
  <wpt lat="50.1096266169408" lon="14.417810199889272"></wpt>
  <wpt lat="50.10961475978048" lon="14.417778299920872"></wpt>
  <wpt lat="50.10960290261141" lon="14.417746399968275"></wpt>
  <wpt lat="50.10958964857044" lon="14.417710712241021"></wpt>
  <wpt lat="50.10957639451852" lon="14.417675024533512"></wpt>
  <wpt lat="50.1095631404557" lon="14.417639336845749"></wpt>
  <wpt lat="50.10954988638193" lon="14.417603649177781"></wpt>
  <wpt lat="50.10953663229723" lon="14.417567961529558"></wpt>
  <wpt lat="50.1095233782016" lon="14.417532273901106"></wpt>
  <wpt lat="50.10951012409504" lon="14.417496586292422"></wpt>
  <wpt lat="50.109496869977555" lon="14.417460898703485"></wpt>
  <wpt lat="50.10948361584914" lon="14.417425211134319"></wpt>
  <wpt lat="50.10947036170979" lon="14.417389523584921"></wpt>
  <wpt lat="50.10945710755951" lon="14.41735383605527"></wpt>
  <wpt lat="50.10944385339831" lon="14.41731814854539"></wpt>
  <wpt lat="50.10943059922617" lon="14.417282461055278"></wpt>
  <wpt lat="50.1094173450431" lon="14.41724677358491"></wpt>
  <wpt lat="50.109404090849104" lon="14.417211086134316"></wpt>
  <wpt lat="50.109390836644174" lon="14.417175398703463"></wpt>
  <wpt lat="50.10937758242834" lon="14.417139711292409"></wpt>
  <wpt lat="50.10936432820154" lon="14.417104023901098"></wpt>
  <wpt lat="50.109351073963836" lon="14.417068336529558"></wpt>
  <wpt lat="50.10933781971519" lon="14.417032649177763"></wpt>
  <wpt lat="50.109324565455616" lon="14.416996961845738"></wpt>
  <wpt lat="50.10931131118512" lon="14.416961274533483"></wpt>
  <wpt lat="50.10929805690368" lon="14.416925587240973"></wpt>
  <wpt lat="50.10928480261132" lon="14.416889899968234"></wpt>
  <wpt lat="50.10927048968413" lon="14.416854799737495"></wpt>
  <wpt lat="50.10925617674638" lon="14.416819699527721"></wpt>
  <wpt lat="50.10924186379805" lon="14.416784599338914"></wpt>
  <wpt lat="50.10922755083914" lon="14.4167494991711"></wpt>
  <wpt lat="50.10921323786965" lon="14.41671439902425"></wpt>
  <wpt lat="50.109198924889604" lon="14.416679298898394"></wpt>
  <wpt lat="50.109184611898996" lon="14.416644198793502"></wpt>
  <wpt lat="50.1091702988978" lon="14.416609098709579"></wpt>
  <wpt lat="50.10915598588603" lon="14.416573998646644"></wpt>
  <wpt lat="50.10914167286369" lon="14.416538898604703"></wpt>
  <wpt lat="50.10912735983078" lon="14.416503798583703"></wpt>
  <wpt lat="50.10911304678731" lon="14.416468698583719"></wpt>
  <wpt lat="50.10909873373323" lon="14.416433598604677"></wpt>
  <wpt lat="50.10908442066861" lon="14.41639849864665"></wpt>
  <wpt lat="50.109070107593425" lon="14.416363398709565"></wpt>
  <wpt lat="50.10905579450765" lon="14.416328298793472"></wpt>
  <wpt lat="50.109041481411296" lon="14.416293198898371"></wpt>
  <wpt lat="50.10902716830438" lon="14.416258099024235"></wpt>
  <wpt lat="50.10901285518689" lon="14.416222999171067"></wpt>
  <wpt lat="50.10899854205884" lon="14.416187899338889"></wpt>
  <wpt lat="50.10898422892021" lon="14.416152799527678"></wpt>
  <wpt lat="50.108969915771" lon="14.416117699737432"></wpt>
  <wpt lat="50.10895560261122" lon="14.41608259996818"></wpt>
  <wpt lat="50.108943367947184" lon="14.416047160638405"></wpt>
  <wpt lat="50.10893113327236" lon="14.41601172132672"></wpt>
  <wpt lat="50.10891889858675" lon="14.415976282033178"></wpt>
  <wpt lat="50.10890666389036" lon="14.415940842757752"></wpt>
  <wpt lat="50.10889442918321" lon="14.415905403500444"></wpt>
  <wpt lat="50.108882194465274" lon="14.415869964261276"></wpt>
  <wpt lat="50.108869959736545" lon="14.415834525040225"></wpt>
  <wpt lat="50.10885772499706" lon="14.41579908583729"></wpt>
  <wpt lat="50.10884549024677" lon="14.415763646652499"></wpt>
  <wpt lat="50.10883325548572" lon="14.415728207485797"></wpt>
  <wpt lat="50.10882102071389" lon="14.415692768337237"></wpt>
  <wpt lat="50.10880878593128" lon="14.41565732920682"></wpt>
  <wpt lat="50.10879655113787" lon="14.415621890094494"></wpt>
  <wpt lat="50.10878431633372" lon="14.415586451000308"></wpt>
  <wpt lat="50.108772081518765" lon="14.41555101192424"></wpt>
  <wpt lat="50.10875984669304" lon="14.415515572866289"></wpt>
  <wpt lat="50.10874761185653" lon="14.415480133826478"></wpt>
  <wpt lat="50.108735377009246" lon="14.415444694804785"></wpt>
  <wpt lat="50.1087231421512" lon="14.415409255801208"></wpt>
  <wpt lat="50.108710907282344" lon="14.415373816815771"></wpt>
  <wpt lat="50.10869867240273" lon="14.415338377848428"></wpt>
  <wpt lat="50.10868643751232" lon="14.415302938899226"></wpt>
  <wpt lat="50.10867420261115" lon="14.415267499968165"></wpt>
  <wpt lat="50.10865992262689" lon="14.415237199932049"></wpt>
  <wpt lat="50.10864564263477" lon="14.415206899913999"></wpt>
  <wpt lat="50.108631362634775" lon="14.415176599913988"></wpt>
  <wpt lat="50.10861708262689" lon="14.415146299932044"></wpt>
  <wpt lat="50.108602802611124" lon="14.415115999968139"></wpt>
  <wpt lat="50.10858708262337" lon="14.41508927993315"></wpt>
  <wpt lat="50.1085713626295" lon="14.415062559915645"></wpt>
  <wpt lat="50.108555642629504" lon="14.415035839915644"></wpt>
  <wpt lat="50.10853992262336" lon="14.415009119933123"></wpt>
  <wpt lat="50.108524202611086" lon="14.414982399968133"></wpt>
  <wpt lat="50.108508152615805" lon="14.41494924995704"></wpt>
  <wpt lat="50.10849210261109" lon="14.414916099968133"></wpt>
  <wpt lat="50.108481322631015" lon="14.414882039937421"></wpt>
  <wpt lat="50.108470542640966" lon="14.414847979922053"></wpt>
  <wpt lat="50.10845976264097" lon="14.414813919922052"></wpt>
  <wpt lat="50.10844898263102" lon="14.414779859937418"></wpt>
  <wpt lat="50.108438202611076" lon="14.414745799968129"></wpt>
  <wpt lat="50.1084284582711" lon="14.414707966503528"></wpt>
  <wpt lat="50.10841871391882" lon="14.41467013305437"></wpt>
  <wpt lat="50.10840896955424" lon="14.414632299620683"></wpt>
  <wpt lat="50.108399225177415" lon="14.414594466202415"></wpt>
  <wpt lat="50.10838948078826" lon="14.414556632799565"></wpt>
  <wpt lat="50.10837973638682" lon="14.414518799412187"></wpt>
  <wpt lat="50.10836999197311" lon="14.414480966040253"></wpt>
  <wpt lat="50.10836024754708" lon="14.414443132683765"></wpt>
  <wpt lat="50.10835050310879" lon="14.414405299342695"></wpt>
  <wpt lat="50.1083407586582" lon="14.414367466017096"></wpt>
  <wpt lat="50.10833101419531" lon="14.414329632706915"></wpt>
  <wpt lat="50.108321269720136" lon="14.41429179941218"></wpt>
  <wpt lat="50.10831152523268" lon="14.41425396613289"></wpt>
  <wpt lat="50.10830178073292" lon="14.414216132869043"></wpt>
  <wpt lat="50.10829203622088" lon="14.414178299620643"></wpt>
  <wpt lat="50.10828229169656" lon="14.414140466387687"></wpt>
  <wpt lat="50.10827254715993" lon="14.414102633170176"></wpt>
  <wpt lat="50.108262802611016" lon="14.414064799968083"></wpt>
  <wpt lat="50.10825092764799" lon="14.414029724907135"></wpt>
  <wpt lat="50.10823905267437" lon="14.413994649863614"></wpt>
  <wpt lat="50.1082271776902" lon="14.413959574837499"></wpt>
  <wpt lat="50.10821530269548" lon="14.413924499828788"></wpt>
  <wpt lat="50.10820342769021" lon="14.41388942483748"></wpt>
  <wpt lat="50.10819155267436" lon="14.413854349863602"></wpt>
  <wpt lat="50.10817967764796" lon="14.413819274907128"></wpt>
  <wpt lat="50.108167802611" lon="14.413784199968083"></wpt>
  <wpt lat="50.10815400263522" lon="14.413750599919672"></wpt>
  <wpt lat="50.10814020264975" lon="14.413716999890624"></wpt>
  <wpt lat="50.10812640265458" lon="14.41368339988094"></wpt>
  <wpt lat="50.10811260264973" lon="14.413649799890617"></wpt>
  <wpt lat="50.1080988026352" lon="14.41361619991966"></wpt>
  <wpt lat="50.10808500261098" lon="14.41358259996804"></wpt>
  <wpt lat="50.10806884013889" lon="14.41355211239614"></wpt>
  <wpt lat="50.10805267765882" lon="14.413521624844774"></wpt>
  <wpt lat="50.108036515170795" lon="14.413491137313967"></wpt>
  <wpt lat="50.10802035267478" lon="14.413460649803694"></wpt>
  <wpt lat="50.10800419017078" lon="14.413430162313954"></wpt>
  <wpt lat="50.1079880276588" lon="14.413399674844774"></wpt>
  <wpt lat="50.10797186513886" lon="14.413369187396126"></wpt>
  <wpt lat="50.10795570261093" lon="14.413338699968039"></wpt>
  <wpt lat="50.107943927621726" lon="14.413309749946677"></wpt>
  <wpt lat="50.10793215262531" lon="14.413280799939564"></wpt>
  <wpt lat="50.107920377621724" lon="14.4132518499467"></wpt>
  <wpt lat="50.10790860261094" lon="14.413222899968034"></wpt>
  <wpt lat="50.10789643725582" lon="14.413186168672013"></wpt>
  <wpt lat="50.1078842718891" lon="14.41314943739464"></wpt>
  <wpt lat="50.10787210651079" lon="14.413112706135971"></wpt>
  <wpt lat="50.107859941120914" lon="14.413075974895978"></wpt>
  <wpt lat="50.10784777571947" lon="14.41303924367466"></wpt>
  <wpt lat="50.10783561030644" lon="14.413002512472046"></wpt>
  <wpt lat="50.107823444881824" lon="14.412965781288081"></wpt>
  <wpt lat="50.10781127944562" lon="14.412929050122818"></wpt>
  <wpt lat="50.10779911399786" lon="14.412892318976256"></wpt>
  <wpt lat="50.107786948538504" lon="14.412855587848345"></wpt>
  <wpt lat="50.10777478306758" lon="14.412818856739136"></wpt>
  <wpt lat="50.10776261758507" lon="14.412782125648604"></wpt>
  <wpt lat="50.10775045209099" lon="14.412745394576747"></wpt>
  <wpt lat="50.107738286585324" lon="14.412708663523592"></wpt>
  <wpt lat="50.10772612106807" lon="14.412671932489088"></wpt>
  <wpt lat="50.10771395553925" lon="14.412635201473286"></wpt>
  <wpt lat="50.10770178999885" lon="14.412598470476185"></wpt>
  <wpt lat="50.10768962444686" lon="14.412561739497734"></wpt>
  <wpt lat="50.1076774588833" lon="14.412525008537987"></wpt>
  <wpt lat="50.10766529330816" lon="14.412488277596914"></wpt>
  <wpt lat="50.10765312772144" lon="14.412451546674518"></wpt>
  <wpt lat="50.107640962123135" lon="14.412414815770825"></wpt>
  <wpt lat="50.107628796513254" lon="14.41237808488578"></wpt>
  <wpt lat="50.1076166308918" lon="14.41234135401944"></wpt>
  <wpt lat="50.10760446525876" lon="14.4123046231718"></wpt>
  <wpt lat="50.107592299614154" lon="14.41226789234281"></wpt>
  <wpt lat="50.107580133957946" lon="14.412231161532521"></wpt>
  <wpt lat="50.10756796829017" lon="14.412194430740911"></wpt>
  <wpt lat="50.10755580261082" lon="14.412157699967976"></wpt>
  <wpt lat="50.107576025564576" lon="14.412183684917464"></wpt>
  <wpt lat="50.10759624851251" lon="14.41220966988881"></wpt>
  <wpt lat="50.10761647145463" lon="14.412235654881988"></wpt>
  <wpt lat="50.10763669439094" lon="14.412261639897046"></wpt>
  <wpt lat="50.10765691732146" lon="14.412287624933988"></wpt>
  <wpt lat="50.10767714024616" lon="14.412313609992761"></wpt>
  <wpt lat="50.10768607142975" lon="14.412296804983495"></wpt>
  <wpt lat="50.107695002610875" lon="14.412279999967968"></wpt>
</gpx>